
# Worst residual: 13.41 km
# MJD 58982.000000 (2020 May 13  0:00)
2019-021B = NORAD 44187 = Falcon 9 rocket
1 44187U 19021B   20134.49919926  .00000000  00000-0  00000-0 0  9941
2 44187 021.4842 326.6841 8668690 259.1396 270.6967 00.76121031    03

# Worst residual: 6.94 km
# MJD 58983.000000 (2020 May 14  0:00)
2019-021B = NORAD 44187 = Falcon 9 rocket
1 44187U 19021B   20135.49919926  .00000000  00000-0  00000-0 0  9942
2 44187 021.4804 326.5352 8670354 259.3784 184.7022 00.76133393    01

# Worst residual: 12.17 km
# MJD 58984.000000 (2020 May 15  0:00)
2019-021B = NORAD 44187 = Falcon 9 rocket
1 44187U 19021B   20136.49919926  .00000000  00000-0  00000-0 0  9943
2 44187 021.4795 326.4299 8667980 259.5739 098.7102 00.76126506    03

# Worst residual: 14.71 km
# MJD 58985.000000 (2020 May 16  0:00)
2019-021B = NORAD 44187 = Falcon 9 rocket
1 44187U 19021B   20137.49919926  .00000000  00000-0  00000-0 0  9944
2 44187 021.4786 326.3054 8667623 259.7832 012.7234 00.76150204    05

# Worst residual: 12.31 km
# MJD 58986.000000 (2020 May 17  0:00)
2019-021B = NORAD 44187 = Falcon 9 rocket
1 44187U 19021B   20138.49919926  .00000000  00000-0  00000-0 0  9945
2 44187 021.4732 326.1811 8667867 259.9909 286.7341 00.76127195    07

# Worst residual: 5.77 km
# MJD 58987.000000 (2020 May 18  0:00)
2019-021B = NORAD 44187 = Falcon 9 rocket
1 44187U 19021B   20139.49919926  .00000000  00000-0  00000-0 0  9946
2 44187 021.4697 326.0470 8669981 260.2147 200.7479 00.76132486    02

# Worst residual: 13.56 km
# MJD 58988.000000 (2020 May 19  0:00)
2019-021B = NORAD 44187 = Falcon 9 rocket
1 44187U 19021B   20140.49919926  .00000000  00000-0  00000-0 0  9948
2 44187 021.4651 325.8967 8668534 260.4576 114.7573 00.76119267    02

# Worst residual: 13.59 km
# MJD 58989.000000 (2020 May 20  0:00)
2019-021B = NORAD 44187 = Falcon 9 rocket
1 44187U 19021B   20141.49919926  .00000000  00000-0  00000-0 0  9949
2 44187 021.4657 325.7622 8669484 260.6813 028.7732 00.76145166    04

# Worst residual: 15.47 km
# MJD 58990.000000 (2020 May 21  0:00)
2019-021B = NORAD 44187 = Falcon 9 rocket
1 44187U 19021B   20142.49919926  .00000000  00000-0  00000-0 0  9940
2 44187 021.4599 325.6132 8669586 260.9204 302.7561 00.76127500    01

# Worst residual: 8.94 km
# MJD 58991.000000 (2020 May 22  0:00)
2019-021B = NORAD 44187 = Falcon 9 rocket
1 44187U 19021B   20143.49919926  .00000000  00000-0  00000-0 0  9941
2 44187 021.4573 325.4952 8669972 261.1406 216.7617 00.76125116    04

# Worst residual: 12.56 km
# MJD 58992.000000 (2020 May 23  0:00)
2019-021B = NORAD 44187 = Falcon 9 rocket
1 44187U 19021B   20144.49919926  .00000000  00000-0  00000-0 0  9942
2 44187 021.4538 325.3364 8668240 261.3941 130.7703 00.76126802    08

# Worst residual: 17.33 km
# MJD 58993.000000 (2020 May 24  0:00)
2019-021B = NORAD 44187 = Falcon 9 rocket
1 44187U 19021B   20145.49919926  .00000000  00000-0  00000-0 0  9943
2 44187 021.4552 325.2371 8667006 261.5825 044.7928 00.76147981    07

# Worst residual: 13.91 km
# MJD 58994.000000 (2020 May 25  0:00)
2019-021B = NORAD 44187 = Falcon 9 rocket
1 44187U 19021B   20146.49919926  .00000000  00000-0  00000-0 0  9944
2 44187 021.4516 325.1194 8665699 261.7859 318.8102 00.76132092    00

# Worst residual: 13.05 km
# MJD 58995.000000 (2020 May 26  0:00)
2019-021B = NORAD 44187 = Falcon 9 rocket
1 44187U 19021B   20147.49919926  .00000000  00000-0  00000-0 0  9945
2 44187 021.4493 325.0240 8666723 261.9750 232.8584 00.76140214    00

# Worst residual: 17.29 km
# MJD 58996.000000 (2020 May 27  0:00)
2019-021B = NORAD 44187 = Falcon 9 rocket
1 44187U 19021B   20148.49919926  .00000000  00000-0  00000-0 0  9946
2 44187 021.4436 324.8512 8666200 262.2252 146.8958 00.76139529    03

# Worst residual: 13.18 km
# MJD 58997.000000 (2020 May 28  0:00)
2019-021B = NORAD 44187 = Falcon 9 rocket
1 44187U 19021B   20149.49919926  .00000000  00000-0  00000-0 0  9947
2 44187 021.4447 324.7506 8664968 262.4152 060.9412 00.76146437    04

# Worst residual: 12.78 km
# MJD 58998.000000 (2020 May 29  0:00)
2019-021B = NORAD 44187 = Falcon 9 rocket
1 44187U 19021B   20150.49919926  .00000000  00000-0  00000-0 0  9949
2 44187 021.4409 324.6127 8665298 262.6418 334.9414 00.76153999    01

# Worst residual: 16.91 km
# MJD 58999.000000 (2020 May 30  0:00)
2019-021B = NORAD 44187 = Falcon 9 rocket
1 44187U 19021B   20151.49919926  .00000000  00000-0  00000-0 0  9940
2 44187 021.4377 324.5216 8666119 262.8258 248.9625 00.76135083    02

# Worst residual: 9.13 km
# MJD 59000.000000 (2020 May 31  0:00)
2019-021B = NORAD 44187 = Falcon 9 rocket
1 44187U 19021B   20152.49919926  .00000000  00000-0  00000-0 0  9941
2 44187 021.4345 324.3460 8666794 263.0857 162.9962 00.76136378    00

# Worst residual: 14.04 km
# MJD 59001.000000 (2020 Jun  1  0:00)
2019-021B = NORAD 44187 = Falcon 9 rocket
1 44187U 19021B   20153.49919926  .00000000  00000-0  00000-0 0  9942
2 44187 021.4345 324.2562 8665133 263.2718 077.0284 00.76137046    02

# Worst residual: 17.73 km
# MJD 59002.000000 (2020 Jun  2  0:00)
2019-021B = NORAD 44187 = Falcon 9 rocket
1 44187U 19021B   20154.49919926  .00000000  00000-0  00000-0 0  9943
2 44187 021.4337 324.1359 8664863 263.4800 351.0384 00.76147917    03

# Worst residual: 13.22 km
# MJD 59003.000000 (2020 Jun  3  0:00)
2019-021B = NORAD 44187 = Falcon 9 rocket
1 44187U 19021B   20155.49919926  .00000000  00000-0  00000-0 0  9944
2 44187 021.4309 324.0477 8664553 263.6579 265.0719 00.76127159    05
